ONEWEB-0233             
1 48795U 21045AE  25044.57959245 -.00000228  00000+0 -63883-3 0  9990
2 48795  87.9124 356.5471 0002108  85.1170 275.0201 13.15548024180054
ONEWEB-0190             
1 48796U 21045AF  25044.56613332  .00000079  00000+0  17701-3 0  9994
2 48796  87.9125 356.5122 0002464  99.2501 260.8908 13.15550184180122
ONEWEB-0236             
1 48797U 21045AG  25044.58356248 -.00000059  00000+0 -19116-3 0  9999
2 48797  87.9128 356.5114 0001994  82.2277 277.9079 13.15549938180017
ONEWEB-0248             
1 48798U 21045AH  25044.59622018 -.00000275  00000+0 -76568-3 0  9996
2 48798  87.9118 356.4785 0002565  86.3098 273.8325 13.15547569180175
ONEWEB-0225             
1 48799U 21045AJ  25044.39025508  .00000224  00000+0  56161-3 0  9995
2 48799  87.9124 356.5431 0002140  89.1866 270.9510 13.15547892180156
ONEWEB-0215             
1 48800U 21045AK  25044.58830275 -.00000271  00000+0 -75261-3 0  9990
2 48800  87.9116 356.4640 0002515  90.9400 269.2019 13.15547829180055
ONEWEB-0216             
1 48801U 21045AL  25044.59781839  .00000040  00000+0  73031-4 0  9999
2 48801  87.9118 356.5060 0001715  87.8107 272.3219 13.15549981180064
ONEWEB-0239             
1 48802U 21045AM  25044.60258008 -.00000123  00000+0 -36034-3 0  9994
2 48802  87.9127 356.5021 0002694  87.2319 272.9120 13.15548315180100
